[
    {
        "CCSDS_OMM_VERS": "3.0",
        "COMMENT": "GENERATED VIA SPACE-TRACK.ORG API",
        "CREATION_DATE": "2025-03-02T18:08:23",
        "ORIGINATOR": "18 SPCS",
        "OBJECT_NAME": "NAVSTAR 77 (USA 289)",
        "OBJECT_ID": "2018-109A",
        "CENTER_NAME": "EARTH",
        "REF_FRAME": "TEME",
        "TIME_SYSTEM": "UTC",
        "MEAN_ELEMENT_THEORY": "SGP4",
        "EPOCH": "2025-03-02T08:18:40.701888",
        "MEAN_MOTION": "2.00565407",
        "ECCENTRICITY": "0.00331560",
        "INCLINATION": "55.4092",
        "RA_OF_ASC_NODE": "110.8216",
        "ARG_OF_PERICENTER": "196.8547",
        "MEAN_ANOMALY": "154.2214",
        "EPHEMERIS_TYPE": "0",
        "CLASSIFICATION_TYPE": "U",
        "NORAD_CAT_ID": "43873",
        "ELEMENT_SET_NO": "999",
        "REV_AT_EPOCH": "4560",
        "BSTAR": "0.00000000000000",
        "MEAN_MOTION_DOT": "0.00000027",
        "MEAN_MOTION_DDOT": "0.0000000000000",
        "SEMIMAJOR_AXIS": "26560.189",
        "PERIOD": "717.970",
        "APOAPSIS": "20270.117",
        "PERIAPSIS": "20093.991",
        "OBJECT_TYPE": "PAYLOAD",
        "RCS_SIZE": "LARGE",
        "COUNTRY_CODE": "US",
        "LAUNCH_DATE": "2018-12-23",
        "SITE": "AFETR",
        "DECAY_DATE": null,
        "FILE": "4657142",
        "GP_ID": "282087746",
        "TLE_LINE0": "0 NAVSTAR 77 (USA 289)",
        "TLE_LINE1": "1 43873U 18109A   25061.34630442  .00000027  00000-0  00000-0 0  9993",
        "TLE_LINE2": "2 43873  55.4092 110.8216 0033156 196.8547 154.2214  2.00565407 45602"
    }
]